PHASE 3B (AO-10)        
1 14129U 83058B   21031.53951350 -.00000231  00000-0  00000+0 0  9995
2 14129  25.8043 177.4321 6062183 306.0645  11.7507  2.05872403255088
UOSAT 2 (UO-11)         
1 14781U 84021B   21032.46188320  .00000109  00000-0  19450-4 0  9999
2 14781  97.5905  39.0215 0008878 159.2440 200.9137 14.83242820965774
LUSAT (LO-19)           
1 20442U 90005G   21032.46932636  .00000000  00000-0  16571-4 0  9997
2 20442  98.7239 346.8348 0011360 196.0928 163.9897 14.32974978621358
EYESAT A (AO-27)        
1 22825U 93061C   21032.50803177 -.00000021  00000-0  99119-5 0  9995
2 22825  98.9242  46.7350 0009426  72.9016 287.3197 14.30104943426554
ITAMSAT (IO-26)         
1 22826U 93061D   21032.44060875 -.00000014  00000-0  12683-4 0  9991
2 22826  98.9184  46.5879 0009861  61.7911 298.4266 14.30442623426782
RADIO ROSTO (RS-15)     
1 23439U 94085A   21032.56370006 -.00000037  00000-0  15882-3 0  9990
2 23439  64.8141 235.7336 0156732 359.7367   0.3451 11.27570323 75017
JAS-2 (FO-29)           
1 24278U 96046B   21033.20728731 -.00000045  00000-0 -12129-4 0  9997
2 24278  98.5825 119.0266 0350979 139.8756 222.8876 13.53102106208208
TECHSAT 1B (GO-32)      
1 25397U 98043D   21032.55671523 -.00000003  00000-0  18073-4 0  9999
2 25397  98.7563 338.5974 0002293 103.2557 256.8877 14.23700292172153
ISS (ZARYA)             
1 25544U 98067A   21033.20490693  .00001165  00000-0  29351-4 0  9999
2 25544  51.6462 290.3602 0002203 328.6245 168.5260 15.48933604267674
PCSAT (NO-44)           
1 26931U 01043C   21032.41077373 -.00000031  00000-0  19708-4 0  9993
2 26931  67.0506 271.5330 0007375 270.7029  89.3227 14.30604725  9784
SAUDISAT 1C (SO-50)     
1 27607U 02058C   21033.17412883 -.00000013  00000-0  18429-4 0  9993
2 27607  64.5559  32.0000 0029526  80.1663 280.2771 14.75707593974758
CUTE-1 (CO-55)          
1 27844U 03031E   21032.49284359  .00000042  00000-0  38278-4 0  9992
2 27844  98.6820  42.7560 0010871 110.6443 249.5901 14.22285523912657
CUBESAT XI-IV (CO-57)   
1 27848U 03031J   21032.44573075  .00000027  00000-0  31995-4 0  9999
2 27848  98.6881  43.2778 0010676 122.6075 237.6135 14.21865735912488
MOZHAYETS 4 (RS-22)     
1 27939U 03042A   21033.19226583  .00000126  00000-0  31231-4 0  9997
2 27939  98.1183 171.4152 0012477 353.8404   6.2648 14.66939253927698
CUBESAT XI-V            
1 28895U 05043F   21033.08897244  .00000133  00000-0  34404-4 0  9991
2 28895  98.0370 169.4636 0015469 277.0505  82.8939 14.63860037814434
CUTE-1.7+APD II (CO-65) 
1 32785U 08021C   21032.42303479  .00000270  00000-0  34576-4 0  9994
2 32785  97.5967  16.6719 0014526  93.6787 266.6092 14.88622728691935
DELFI-C3 (DO-64)        
1 32789U 08021G   21032.18736581  .00001735  00000-0  11523-3 0  9998
2 32789  97.3933  72.7282 0010498 247.4989 112.5129 15.08446661696382
SEEDS II (CO-66)        
1 32791U 08021J   21032.96382672  .00000383  00000-0  43750-4 0  9991
2 32791  97.5594  23.2199 0014614  60.9923 299.2759 14.91263606692664
YUBILEINY (RS-30)       
1 32953U 08025A   21032.93552849  .00000028  00000-0  12906-3 0  9991
2 32953  82.5054 135.2213 0018389 271.7213  88.1758 12.43099544576148
KKS-1 (KISEKI)          
1 33499U 09002H   21032.58444094  .00000107  00000-0  23688-4 0  9994
2 33499  98.2880 259.3604 0010245 111.6324 248.5976 14.75612795646378
SWISSCUBE               
1 35932U 09051B   21032.26568092  .00000122  00000-0  38568-4 0  9992
2 35932  98.6069 227.9370 0008239 139.6982 220.4827 14.56482769603132
BEESAT-1                
1 35933U 09051C   21032.37437316  .00000103  00000-0  34229-4 0  9998
2 35933  98.6046 229.9029 0006270 149.3384 210.8181 14.56547366603229
ITUPSAT1                
1 35935U 09051E   21032.09153440  .00000081  00000-0  29812-4 0  9999
2 35935  98.6151 229.7751 0008569 152.8512 207.3134 14.55684958602937
XIWANG-1 (HOPE-1)       
1 36122U 09072B   21033.16627119 -.00000018  00000-0  64254-4 0  9999
2 36122 100.1158  19.5286 0008016  57.8350 302.3542 13.16358918535092
JUGNU                   
1 37839U 11058B   21032.22295294  .00000324  00000-0  30929-4 0  9994
2 37839  19.9625 335.3967 0018914  31.0784 113.6180 14.12702161481172
SRMSAT                  
1 37841U 11058D   21032.39462049  .00000293  00000-0  15731-4 0  9998
2 37841  19.9735  43.4147 0011662 238.5429 151.5309 14.10683884480482
M-CUBED & EXP-1 PRIME   
1 37855U 11061F   21032.42097530  .00001260  00000-0  68412-4 0  9999
2 37855 101.7261 245.2782 0168430 115.1229 246.7564 15.07151731505680
STRAND-1                
1 39090U 13009E   21032.31660847  .00000030  00000-0  25657-4 0  9999
2 39090  98.4365 237.6362 0008559 330.1867  29.8830 14.35166652415517
SOMP                    
1 39134U 13015E   21032.38955996  .00001379  00000-0  69139-4 0  9994
2 39134  64.8615 254.7318 0011077 219.5419 140.4903 15.21937808430506
BEESAT-3                
1 39135U 13015F   21032.10768467  .00000834  00000-0  49333-4 0  9999
2 39135  64.8662 282.6409 0014613 204.2190 155.8251 15.18874502429934
BEESAT-2                
1 39136U 13015G   21032.44447917  .00001172  00000-0  66245-4 0  9998
2 39136  64.8738 287.3911 0028470 261.8766  97.9131 15.18259539429865
ZACUBE-1 (TSHEPISOSAT)  
1 39417U 13066B   21032.96072627  .00000227  00000-0  34800-4 0  9997
2 39417  97.5812  24.4078 0057323 244.8065 114.7198 14.81420194389018
GOMX-1                  
1 39430U 13066Q   21033.06912816  .00000185  00000-0  42386-4 0  9998
2 39430  97.8092 323.9506 0150556 180.7759 179.3232 14.59528378383297
CUBEBUG-2 (LO-74)       
1 39440U 13066AA  21032.34424847  .00000306  00000-0  49372-4 0  9998
2 39440  97.6592   8.5503 0079002 318.0375  41.4799 14.76153699386345
FUNCUBE-1 (AO-73)       
1 39444U 13066AE  21032.41932267  .00000297  00000-0  42564-4 0  9995
2 39444  97.5730  26.2267 0056488 237.4767 122.0982 14.82306163387285
UWE-3                   
1 39446U 13066AG  21032.41471017  .00000257  00000-0  40703-4 0  9997
2 39446  97.6220  15.6785 0068329 283.2933  76.0665 14.78688384386402
SPROUT                  
1 39770U 14029E   21033.07136914  .00000962  00000-0  11047-3 0  9995
2 39770  97.9072 144.5974 0007748 296.3212  63.7242 14.88156770363202
UNISAT-6                
1 40012U 14033C   21032.35083898  .00000173  00000-0  32880-4 0  9996
2 40012  97.6863 241.8222 0057762 341.8127  18.1016 14.74234863356140
DUCHIFAT-1              
1 40021U 14033M   21032.39172447  .00000457  00000-0  51899-4 0  9995
2 40021  97.9616 331.2585 0011420 251.7532 108.2443 14.91165337360008
QB50P1                  
1 40025U 14033R   21032.37345700  .00000285  00000-0  36080-4 0  9995
2 40025  97.9271 322.7740 0010967 266.4705  93.5257 14.89318657359163
NUDT-PHONESAT           
1 40900U 15049B   21033.15832959  .00002850  00000-0  11558-3 0  9991
2 40900  97.4249  48.2179 0010492 253.7865 171.0292 15.25416411298194
ZDPS 2A                 
1 40901U 15049C   21033.23438748  .00001487  00000-0  74288-4 0  9994
2 40901  97.4624  41.9976 0011741 296.6960 123.4555 15.18990855297448
ZDPS 2B                 
1 40902U 15049D   21033.21635884  .00001559  00000-0  77669-4 0  9999
2 40902  97.4644  39.2677 0011647 294.1646 127.3151 15.19007927297410
XW-2A                   
1 40903U 15049E   21033.18110008  .00002393  00000-0  53693-4 0  9990
2 40903  97.2566  88.0124 0013767 141.6797 295.1709 15.44314316301914
KAITUO 1A               
1 40904U 15049F   21033.23996850  .00000641  00000-0  36802-4 0  9991
2 40904  97.4826  36.9060 0013195 311.4717 103.9608 15.15987364297051
2015-049G               
1 40905U 15049G   21033.23790602  .00000644  00000-0  38203-4 0  9999
2 40905  97.4949  34.0216 0014159 309.3820 113.6257 15.14814412296860
XW-2C                   
1 40906U 15049H   21033.23221356  .00000785  00000-0  43714-4 0  9994
2 40906  97.4823  37.3209 0013144 300.2823 116.0526 15.16460254297079
XW-2D                   
1 40907U 15049J   21033.20113424  .00001127  00000-0  60831-4 0  9998
2 40907  97.4814  37.0435 0012482 297.2538 193.3984 15.16745399297094
LILACSAT-2              
1 40908U 15049K   21033.21761750  .00000263  00000-0  17960-4 0  9996
2 40908  97.4996  35.0964 0014645 311.6583 105.5326 15.14271757296763
XW-2F                   
1 40910U 15049M   21033.24824164  .00001502  00000-0  75880-4 0  9993
2 40910  97.4711  39.9955 0012809 282.9476 132.6526 15.18573636297203
XW-2B                   
1 40911U 15049N   21033.24870547  .00001088  00000-0  58962-4 0  9991
2 40911  97.4821  37.7849 0012346 298.1111 116.5187 15.16665898296994
KAITUO 1B               
1 40912U 15049P   21033.20727032  .00001621  00000-0  76041-4 0  9999
2 40912  97.4469  44.2815 0012775 254.0923 173.4212 15.21048839297636
TIANWANG 1C (TW-1C)     
1 40926U 15051B   21033.21491604  .00181819  14545-4  48960-3 0  9990
2 40926  97.0429  94.8442 0002070 246.9012 160.0772 15.94378397303171
TIANWANG 1A (TW-1A)     
1 40928U 15051D   21033.17796307  .00003697  00000-0  81663-4 0  9997
2 40928  97.0893  61.3652 0011689  72.0706   0.9213 15.44410354300808
LAPAN-A2                
1 40931U 15052B   21031.77426175  .00000809  00000-0  23467-4 0  9999
2 40931   5.9997 147.1520 0013754 272.3030  87.5729 14.76662086289064
E-ST@R-II               
1 41459U 16025D   21033.16241438  .00004006  00000-0  19893-3 0  9998
2 41459  98.1216 161.5489 0163042 158.2555 202.5710 15.07386927262031
AAUSAT 4                
1 41460U 16025E   21033.12114225  .00004086  00000-0  19539-3 0  9994
2 41460  98.1204 164.7366 0150311 144.0416 217.1026 15.10139931262287
NUSAT-1 (FRESCO)        
1 41557U 16033B   21033.20113438  .00001713  00000-0  63729-4 0  9999
2 41557  97.3966 127.9720 0012967   2.2313  80.3211 15.28834505260866
BEESAT-4                
1 41619U 16040W   21032.38948451  .00001583  00000-0  66405-4 0  9994
2 41619  97.2899  92.2055 0012577  92.7608 267.5069 15.24860165244276
